COSMOS 2426 (717)       
1 29671U 06062B   20061.61881373  .00000066  00000-0  10000-3 0  9991
2 29671  65.0097 271.5560 0019683 169.9588 206.3839  2.12962286102601
COSMOS 2433 (720)       
1 32275U 07052A   20061.34526538 -.00000022  00000-0  10000-3 0  9997
2 32275  65.9479  32.5216 0005327 270.3331 340.9733  2.13104207 96101
COSMOS 2432 (719)       
1 32276U 07052B   20061.17717713 -.00000022  00000-0  10000-3 0  9996
2 32276  65.9603  32.6145 0012624 322.0600 110.7169  2.13103602 96109
COSMOS 2434 (721)       
1 32393U 07065A   20061.61846251  .00000067  00000-0  00000-0 0  9993
2 32393  64.6148 270.1200 0004889  80.1035 268.2407  2.13102993 94810
COSMOS 2436 (723)       
1 32395U 07065C   20061.18662919  .00000063  00000-0  10000-3 0  9994
2 32395  64.6244 270.1828 0015381   6.9513 146.3795  2.13102955 94747
COSMOS 2456 (730)       
1 36111U 09070A   20061.27114233  .00000007  00000-0  00000-0 0  9997
2 36111  64.2183 149.7961 0003819 319.6116 295.6712  2.13102720 79470
COSMOS 2457 (733)       
1 36112U 09070B   20061.59936469  .00000005  00000-0  00000-0 0  9994
2 36112  64.1994 149.6811 0005669 163.3136 107.5681  2.13101382 79484
COSMOS 2459 (731)       
1 36400U 10007A   20061.53742133 -.00000023  00000-0  10000-3 0  9998
2 36400  65.8513  31.4998 0027003 345.1225 268.6352  2.13105065 77831
COSMOS 2461 (735)       
1 36401U 10007B   20061.32901295 -.00000024  00000-0  10000-3 0  9993
2 36401  65.8438  31.4760 0005486  42.9650 320.2290  2.13101898 77836
COSMOS 2460 (732)       
1 36402U 10007C   20061.49582084 -.00000023  00000-0  10000-3 0  9992
2 36402  65.8342  31.4314 0002645 292.7888 237.7190  2.13101353 77835
COSMOS 2464 (736)       
1 37139U 10041C   20061.52102387  .00000066  00000-0  00000-0 0  9998
2 37139  64.2145 269.6164 0027738  13.8271 124.1764  2.13100701 73909
COSMOS 2474 (742)       
1 37829U 11055A   20061.46796884  .00000006  00000-0  00000-0 0  9998
2 37829  64.5371 150.7698 0009217 244.6042  16.9294  2.13101722 65476
COSMOS 2476 (744)       
1 37867U 11064A   20061.39987755  .00000007  00000-0  00000-0 0  9992
2 37867  64.5179 150.8171 0019210 237.5605  17.9404  2.13101837 64820
COSMOS 2477 (745)       
1 37868U 11064B   20061.19184943  .00000007  00000-0  00000-0 0  9999
2 37868  64.5261 150.8782 0016830 238.6354  35.8343  2.13101681 64771
COSMOS 2475 (743)       
1 37869U 11064C   20061.50042633  .00000006  00000-0  00000+0 0  9992
2 37869  64.5326 150.8693 0020642 261.4221 207.0784  2.13101789 64791
COSMOS 2485 (747)       
1 39155U 13019A   20061.39451352  .00000007  00000-0  00000-0 0  9995
2 39155  64.6861 151.0627 0019810 232.9253  63.0788  2.13101779 53295
COSMOS 2492 (754)       
1 39620U 14012A   20061.56821741 -.00000023  00000-0  10000-3 0  9991
2 39620  65.7258  31.2285 0015895 320.1412 144.2245  2.13103224 46254
COSMOS 2500 (755)       
1 40001U 14032A   20061.00358516 -.00000026  00000-0  00000-0 0  9991
2 40001  65.6659  31.1702 0006918 228.5879  23.3972  2.13102556 44451
COSMOS 2501 (702K)      
1 40315U 14075A   20061.19098115  .00000061  00000-0  00000-0 0  9990
2 40315  63.9325 270.6150 0014902 205.5893 346.0033  2.13098509 40866
COSMOS 2514 (751)       
1 41330U 16008A   20061.20172819 -.00000026  00000-0  00000-0 0  9994
2 41330  65.4672  31.0622 0010830 229.4414 356.7732  2.13102945 31627
COSMOS 2516 (753)       
1 41554U 16032A   20060.60806069  .00000055  00000-0  00000-0 0  9994
2 41554  64.1542 270.6744 0010394 216.4137 165.0589  2.13101695 29221
COSMOS 2522 (752)       
1 42939U 17055A   20060.75018529  .00000057  00000-0  00000+0 0  9991
2 42939  64.3886 270.8202 0005282 255.3214 101.7397  2.13101980 18972
COSMOS 2527 (756)       
1 43508U 18053A   20061.53711954  .00000006  00000-0  00000-0 0  9997
2 43508  64.8487 150.8850 0007190 228.8032  43.6147  2.13102544 13289
COSMOS 2529 (757)       
1 43687U 18086A   20061.05027163  .00000060  00000-0  00000-0 0  9990
2 43687  64.6042 270.8976 0008358 281.3480 261.5627  2.13102047 10292
COSMOS 2534 (758)       
1 44299U 19030A   20061.33983020  .00000064  00000-0  00000-0 0  9998
2 44299  64.6708 270.6956 0012071 300.0087 240.1312  2.13101988  5949
